NORAD_CAT_ID,OBJECT_NAME,OBJECT_TYPE,EPOCH,MEAN_MOTION,ECCENTRICITY,INCLINATION,RA_OF_ASC_NODE,ARG_OF_PERICENTER,MEAN_ANOMALY,BSTAR,MEAN_MOTION_DOT,MEAN_MOTION_DDOT,TLE_LINE0,TLE_LINE1,TLE_LINE2,SEMIMAJOR_AXIS,PERIOD,APOGEE,PERIGEE,DECAYED
51977.0,STARLINK-3660,PAYLOAD,2022-03-16 14:00:01,15.87608579,0.0003216,53.2173,105.117,263.7877,6.143,-0.0017135,-0.00445031,0.0,0 STARLINK-3660,1 51977U 22025X   22075.58334491 -.00445031  00000-0 -17135-2 0  9991,2 51977  53.2173 105.1170 0003216 263.7877   6.1430 15.87608579  2371,6687.127,90.702,311.142,306.841,0.0
51977.0,STARLINK-3660,PAYLOAD,2022-03-16 20:00:01,15.87375285,0.0001691,53.2175,103.8518,280.7297,338.7799,-0.0017578,-0.00450712,0.0,0 STARLINK-3660,1 51977U 22025X   22075.83334491 -.00450712  00000-0 -17578-2 0  9992,2 51977  53.2175 103.8518 0001691 280.7297 338.7799 15.87375285  1358,6687.781999999997,90.716,310.778,308.516,0.0
51977.0,STARLINK-3660,PAYLOAD,2022-03-17 06:00:00,15.86989484,9.05e-05,53.2173,101.7477,356.4029,125.2621,-0.0018514,-0.00464865,0.0,0 STARLINK-3660,1 51977U 22025X   22076.25001157 -.00464865  00000-0 -18514-2 0  9994,2 51977  53.2173 101.7477 0000905 356.4029 125.2621 15.86989484  2476,6688.866,90.738,311.336,310.125,0.0
51977.0,STARLINK-3660,PAYLOAD,2022-03-17 14:00:01,15.86670915,9.93e-05,53.2172,100.0654,88.9836,137.9831,-0.0018466,-0.00456861,0.0,0 STARLINK-3660,1 51977U 22025X   22076.58334491 -.00456861  00000-0 -18466-2 0  9993,2 51977  53.2172 100.0654 0000993  88.9836 137.9831 15.86670915  1472,6689.761,90.756,312.29,310.962,0.0
51977.0,STARLINK-3660,PAYLOAD,2022-03-17 22:00:00,15.86354892,0.0001006,53.2175,98.381,100.0255,231.8665,-0.0018701,-0.00455611,0.0,0 STARLINK-3660,1 51977U 22025X   22076.91667824 -.00455611  00000-0 -18701-2 0  9993,2 51977  53.2175  98.3810 0001006 100.0255 231.8665 15.86354892  1523,6690.649,90.774,313.187,311.841,0.0
51977.0,STARLINK-3660,PAYLOAD,2022-03-18 08:00:01,15.85747276,0.0001223,53.218,96.279,98.3308,94.2872,-0.00053321,-0.00131318,0.0,0 STARLINK-3660,1 51977U 22025X   22077.33334491 -.00131318  00000-0 -53321-3 0  9994,2 51977  53.2180  96.2790 0001223  98.3308  94.2872 15.85747276  2648,6692.358,90.809,315.0420000000001,313.405,0.0
51977.0,STARLINK-3660,PAYLOAD,2022-03-18 14:00:01,15.85728205,0.0001055,53.217,95.0207,85.9317,94.6695,-0.0019468,-0.00459766,0.0,0 STARLINK-3660,1 51977U 22025X   22077.58334491 -.00459766  00000-0 -19468-2 0  9994,2 51977  53.2170  95.0207 0001055  85.9317  94.6695 15.85728205  2684,6692.4119999999975,90.81,314.983,313.571,0.0
51977.0,STARLINK-3660,PAYLOAD,2022-03-18 22:00:00,15.85411444,0.0001046,53.2172,93.3387,99.7316,184.6605,-0.0019608,-0.00456177,0.0,0 STARLINK-3660,1 51977U 22025X   22077.91667824 -.00456177  00000-0 -19608-2 0  9999,2 51977  53.2172  93.3387 0001046  99.7316 184.6605 15.85411444  1682,6693.303000000001,90.828,315.869,314.468,0.0
51977.0,STARLINK-3660,PAYLOAD,2022-03-19 14:00:01,15.84784743,0.0001011,53.2172,89.9829,78.6731,52.1601,-0.0020428,-0.00460798,0.0,0 STARLINK-3660,1 51977U 22025X   22078.58334491 -.00460798  00000-0 -20428-2 0  9990,2 51977  53.2172  89.9829 0001011  78.6731  52.1601 15.84784743  1794,6695.068,90.864,317.61,316.256,0.0
51977.0,STARLINK-3660,PAYLOAD,2022-03-19 22:00:01,15.84468125,0.0001107999999999,53.2173,88.3032,74.1313,159.4242,-0.0020567,-0.00457117,0.0,0 STARLINK-3660,1 51977U 22025X   22078.91668981 -.00457117  00000-0 -20567-2 0  9996,2 51977  53.2173  88.3032 0001108  74.1313 159.4242 15.84468125  2895,6695.96,90.882,318.567,317.083,0.0
51977.0,STARLINK-3660,PAYLOAD,2022-03-20 14:00:01,15.83840392,9.68e-05,53.2171,84.9523,86.6951,350.9674,-0.0021315,-0.00459551,0.0,0 STARLINK-3660,1 51977U 22025X   22079.58334491 -.00459551  00000-0 -21315-2 0  9992,2 51977  53.2171  84.9523 0000968  86.6951 350.9674 15.83840392  1951,6697.729,90.918,320.242,318.946,0.0
51977.0,STARLINK-3660,PAYLOAD,2022-03-20 22:00:01,15.83525082,0.0001122,53.2172,83.2749,69.543,109.7069,-0.0021601,-0.00458822,0.0,0 STARLINK-3660,1 51977U 22025X   22079.91668981 -.00458822  00000-0 -21601-2 0  9991,2 51977  53.2172  83.2749 0001122  69.5430 109.7069 15.83525082  2000,6698.618,90.936,321.235,319.731,0.0
51977.0,STARLINK-3660,PAYLOAD,2022-03-21 06:00:00,15.8320892,0.0001227,53.2175,81.6024,60.5219,219.8035,-0.0021793,-0.00456148,0.0,0 STARLINK-3660,1 51977U 22025X   22080.25001157 -.00456148  00000-0 -21793-2 0  9997,2 51977  53.2175  81.6024 0001227  60.5219 219.8035 15.83208920  3111,6699.51,90.955,322.197,320.553,0.0
51977.0,STARLINK-3660,PAYLOAD,2022-03-21 14:00:01,15.82895594,9.67e-05,53.2171,79.9285,87.1968,293.892,-0.002219,-0.00457508,0.0,0 STARLINK-3660,1 51977U 22025X   22080.58334491 -.00457508  00000-0 -22190-2 0  9996,2 51977  53.2171  79.9285 0000967  87.1968 293.8920 15.82895594  2114,6700.394,90.973,322.907,321.611,0.0
51977.0,STARLINK-3660,PAYLOAD,2022-03-21 22:00:00,15.825812300000004,0.0001084,53.2172,78.2537,70.8331,50.6427,-0.002262,-0.00459411,0.0,0 STARLINK-3660,1 51977U 22025X   22080.91667824 -.00459411  00000-0 -22620-2 0  9995,2 51977  53.2172  78.2537 0001084  70.8331  50.6427 15.82581230  2166,6701.281,90.991,323.872,322.42,0.0
51977.0,STARLINK-3660,PAYLOAD,2022-03-22 14:00:01,15.81951754,0.0001,53.2173,74.9118,86.0097,235.1025,-0.002323,-0.00458103,0.0,0 STARLINK-3660,1 51977U 22025X   22081.58334491 -.00458103  00000-0 -23230-2 0  9995,2 51977  53.2173  74.9118 0001000  86.0097 235.1025 15.81951754  3325,6703.059,91.027,325.594,324.253,0.0
51977.0,STARLINK-3660,PAYLOAD,2022-03-22 22:00:01,15.81636097,0.0001019,53.2174,73.2394,68.2337,352.1971,-0.0023519,-0.00457061,0.0,0 STARLINK-3660,1 51977U 22025X   22081.91668981 -.00457061  00000-0 -23519-2 0  9998,2 51977  53.2174  73.2394 0001019  68.2337 352.1971 15.81636097  2322,6703.95,91.045,326.499,325.132,0.0
51977.0,STARLINK-3660,PAYLOAD,2022-03-23 14:00:01,15.81008681,0.0001085,53.2172,69.902,85.9447,171.7874,-0.0024393,-0.00460235,0.0,0 STARLINK-3660,1 51977U 22025X   22082.58334491 -.00460235  00000-0 -24393-2 0  9996,2 51977  53.2172  69.9020 0001085  85.9447 171.7874 15.81008681  2430,6705.724,91.081,328.31699999999995,326.861,0.0
51977.0,STARLINK-3660,PAYLOAD,2022-03-23 22:00:00,15.80690849,0.0001073,53.2173,68.2322,66.9939,288.8573,-0.0024427,-0.00454446,0.0,0 STARLINK-3660,1 51977U 22025X   22082.91667824 -.00454446  00000-0 -24427-2 0  9997,2 51977  53.2173  68.2322 0001073  66.9939 288.8573 15.80690849  3530,6706.623000000001,91.099,329.207,327.76800000000014,0.0
51977.0,STARLINK-3660,PAYLOAD,2022-03-24 14:00:01,15.80064406,0.0001114,53.2174,64.8992,92.4461,98.5036,-0.0025451,-0.00459731,0.0,0 STARLINK-3660,1 51977U 22025X   22083.58334491 -.00459731  00000-0 -25451-2 0  9992,2 51977  53.2174  64.8992 0001114  92.4461  98.5036 15.80064406  2595,6708.395,91.136,331.0080000000001,329.5130000000001,0.0
51977.0,STARLINK-3660,PAYLOAD,2022-03-24 22:00:00,15.79747403,0.0001114,53.2176,63.2318,84.6318,203.302,-0.0025514,-0.00454492,0.0,0 STARLINK-3660,1 51977U 22025X   22083.91667824 -.00454492  00000-0 -25514-2 0  9997,2 51977  53.2176  63.2318 0001114  84.6318 203.3020 15.79747403  2644,6709.293000000002,91.154,331.905,330.41,0.0
51977.0,STARLINK-3660,PAYLOAD,2022-03-25 00:00:02,15.79623151,0.0001093,53.2177,62.8148,65.8957,336.3126,-0.0021647,-0.0038652,0.0,0 STARLINK-3660,1 51977U 22025X   22084.00002315 -.00386520  00000-0 -21647-2 0  9995,2 51977  53.2177  62.8148 0001093  65.8957 336.3126 15.79623151  3702,6709.645,91.161,332.24300000000005,330.776,0.0
51977.0,STARLINK-3660,PAYLOAD,2022-03-25 12:00:00,15.79198152,9.8e-05,53.2171,60.3203,91.0019,275.7406,-0.0026286,-0.00456513,0.0,0 STARLINK-3660,1 51977U 22025X   22084.50001157 -.00456513  00000-0 -26286-2 0  9997,2 51977  53.2171  60.3203 0000980  91.0019 275.7406 15.79198152  3788,6710.848000000001,91.186,333.371,332.056,0.0
51977.0,STARLINK-3660,PAYLOAD,2022-03-25 14:00:01,15.79119916,0.0001047,53.2172,59.9035,87.1486,33.6155,-0.0026493,-0.00458377,0.0,0 STARLINK-3660,1 51977U 22025X   22084.58334491 -.00458377  00000-0 -26493-2 0  9995,2 51977  53.2172  59.9035 0001047  87.1486  33.6155 15.79119916  2754,6711.07,91.19,333.6380000000001,332.232,0.0
51977.0,STARLINK-3660,PAYLOAD,2022-03-25 22:00:01,15.78804679,0.0001167,53.2174,58.2386,77.619,139.0598,-0.0026717,-0.00455824,0.0,0 STARLINK-3660,1 51977U 22025X   22084.91668981 -.00455824  00000-0 -26717-2 0  9999,2 51977  53.2174  58.2386 0001167  77.6190 139.0598 15.78804679  2800,6711.9630000000025,91.208,334.612,333.045,0.0
51977.0,STARLINK-3660,PAYLOAD,2022-03-26 14:00:01,15.78175494,9.95e-05,53.2174,54.9151,98.4004,308.7755,-0.0027578,-0.00457209,0.0,0 STARLINK-3660,1 51977U 22025X   22085.58334491 -.00457209  00000-0 -27578-2 0  9994,2 51977  53.2174  54.9151 0000995  98.4004 308.7755 15.78175494  3959,6713.746999999999,91.245,336.28,334.944,0.0
51977.0,STARLINK-3660,PAYLOAD,2022-03-26 22:00:00,15.77860212,0.0001102,53.2177,53.2527,86.5929,55.2975,-0.0027829,-0.00454994,0.0,0 STARLINK-3660,1 51977U 22025X   22085.91667824 -.00454994  00000-0 -27829-2 0  9997,2 51977  53.2177  53.2527 0001102  86.5929  55.2975 15.77860212  2962,6714.641,91.263,337.246,335.766,0.0
51977.0,STARLINK-3660,PAYLOAD,2022-03-27 14:00:01,15.77232049,0.0001111,53.2174,49.9332,98.9394,231.2447,-0.0028837,-0.00458204,0.0,0 STARLINK-3660,1 51977U 22025X   22086.58334491 -.00458204  00000-0 -28837-2 0  9990,2 51977  53.2174  49.9332 0001111  98.9394 231.2447 15.77232049  3061,6716.424,91.299,339.035,337.543,0.0
51977.0,STARLINK-3660,PAYLOAD,2022-03-27 22:00:01,15.76915673,0.0001041,53.2175,48.2733,95.6228,328.2078,-0.0029004,-0.00454582,0.0,0 STARLINK-3660,1 51977U 22025X   22086.91668981 -.00454582  00000-0 -29004-2 0  9993,2 51977  53.2175  48.2733 0001041  95.6228 328.2078 15.76915673  4160,6717.321999999999,91.318,339.88699999999994,338.48800000000006,0.0
